CCSDS_OMM_VERS = 2.0
CREATION_DATE  = 
ORIGINATOR     = 

OBJECT_NAME    = STARLINK-36269
OBJECT_ID      = 2026-008AD
CENTER_NAME    = EARTH
REF_FRAME      = TEME
TIME_SYSTEM    = UTC
MEAN_ELEMENT_THEORY = SGP/SGP4

EPOCH          = 2026-01-31T12:00:01.999296
MEAN_MOTION    = 15.75055778
ECCENTRICITY   = .0001216
INCLINATION    = 43.0002
RA_OF_ASC_NODE = 58.7979
ARG_OF_PERICENTER = 275.2610
MEAN_ANOMALY   = 91.4406

EPHEMERIS_TYPE = 0
CLASSIFICATION_TYPE = U
NORAD_CAT_ID   = 67472
ELEMENT_SET_NO = 999
REV_AT_EPOCH   = 383
BSTAR          = -.12326E-3
MEAN_MOTION_DOT = -.1938E-3
MEAN_MOTION_DDOT = 0

CCSDS_OMM_VERS = 2.0
CREATION_DATE  = 
ORIGINATOR     = 

OBJECT_NAME    = STARLINK-36408
OBJECT_ID      = 2026-008AE
CENTER_NAME    = EARTH
REF_FRAME      = TEME
TIME_SYSTEM    = UTC
MEAN_ELEMENT_THEORY = SGP/SGP4

EPOCH          = 2026-01-31T12:00:01.999296
MEAN_MOTION    = 15.75024474
ECCENTRICITY   = .0001737
INCLINATION    = 43.0002
RA_OF_ASC_NODE = 58.7886
ARG_OF_PERICENTER = 272.9184
MEAN_ANOMALY   = 97.6498

EPHEMERIS_TYPE = 0
CLASSIFICATION_TYPE = U
NORAD_CAT_ID   = 67473
ELEMENT_SET_NO = 999
REV_AT_EPOCH   = 383
BSTAR          = .32161E-4
MEAN_MOTION_DOT = .4462E-4
MEAN_MOTION_DDOT = 0

CCSDS_OMM_VERS = 2.0
CREATION_DATE  = 
ORIGINATOR     = 

OBJECT_NAME    = ALSAT-3A
OBJECT_ID      = 2026-009A
CENTER_NAME    = EARTH
REF_FRAME      = TEME
TIME_SYSTEM    = UTC
MEAN_ELEMENT_THEORY = SGP/SGP4

EPOCH          = 2026-01-31T12:03:22.494816
MEAN_MOTION    = 15.23307237
ECCENTRICITY   = .0011792
INCLINATION    = 97.4701
RA_OF_ASC_NODE = 106.2017
ARG_OF_PERICENTER = 198.8416
MEAN_ANOMALY   = 161.2386

EPHEMERIS_TYPE = 0
CLASSIFICATION_TYPE = U
NORAD_CAT_ID   = 67474
ELEMENT_SET_NO = 999
REV_AT_EPOCH   = 246
BSTAR          = .2856E-3
MEAN_MOTION_DOT = .6718E-4
MEAN_MOTION_DDOT = 0

CCSDS_OMM_VERS = 2.0
CREATION_DATE  = 
ORIGINATOR     = 

OBJECT_NAME    = CZ-2C R/B
OBJECT_ID      = 2026-009B
CENTER_NAME    = EARTH
REF_FRAME      = TEME
TIME_SYSTEM    = UTC
MEAN_ELEMENT_THEORY = SGP/SGP4

EPOCH          = 2026-01-31T10:57:48.442752
MEAN_MOTION    = 15.03057479
ECCENTRICITY   = .009979
INCLINATION    = 97.1792
RA_OF_ASC_NODE = 104.7368
ARG_OF_PERICENTER = 166.2527
MEAN_ANOMALY   = 194.1454

EPHEMERIS_TYPE = 0
CLASSIFICATION_TYPE = U
NORAD_CAT_ID   = 67475
ELEMENT_SET_NO = 999
REV_AT_EPOCH   = 248
BSTAR          = .28346E-3
MEAN_MOTION_DOT = .4198E-4
MEAN_MOTION_DDOT = 0

CCSDS_OMM_VERS = 2.0
CREATION_DATE  = 
ORIGINATOR     = 

OBJECT_NAME    = TIANQI-37
OBJECT_ID      = 2026-010A
CENTER_NAME    = EARTH
REF_FRAME      = TEME
TIME_SYSTEM    = UTC
MEAN_ELEMENT_THEORY = SGP/SGP4

EPOCH          = 2026-01-31T06:58:54.491808
MEAN_MOTION    = 14.13519460
ECCENTRICITY   = .001318
INCLINATION    = 44.9836
RA_OF_ASC_NODE = 333.0444
ARG_OF_PERICENTER = 29.4843
MEAN_ANOMALY   = 330.6736

EPHEMERIS_TYPE = 0
CLASSIFICATION_TYPE = U
NORAD_CAT_ID   = 67476
ELEMENT_SET_NO = 999
REV_AT_EPOCH   = 219
BSTAR          = .30696E-3
MEAN_MOTION_DOT = .449E-5
MEAN_MOTION_DDOT = 0

CCSDS_OMM_VERS = 2.0
CREATION_DATE  = 
ORIGINATOR     = 

OBJECT_NAME    = TIANQI-38
OBJECT_ID      = 2026-010B
CENTER_NAME    = EARTH
REF_FRAME      = TEME
TIME_SYSTEM    = UTC
MEAN_ELEMENT_THEORY = SGP/SGP4

EPOCH          = 2026-01-31T06:55:36.546816
MEAN_MOTION    = 14.13896400
ECCENTRICITY   = .0011958
INCLINATION    = 44.9798
RA_OF_ASC_NODE = 333.0263
ARG_OF_PERICENTER = 34.6054
MEAN_ANOMALY   = 325.5560

EPHEMERIS_TYPE = 0
CLASSIFICATION_TYPE = U
NORAD_CAT_ID   = 67477
ELEMENT_SET_NO = 999
REV_AT_EPOCH   = 219
BSTAR          = .30362E-3
MEAN_MOTION_DOT = .447E-5
MEAN_MOTION_DDOT = 0

CCSDS_OMM_VERS = 2.0
CREATION_DATE  = 
ORIGINATOR     = 

OBJECT_NAME    = TIANQI-39
OBJECT_ID      = 2026-010C
CENTER_NAME    = EARTH
REF_FRAME      = TEME
TIME_SYSTEM    = UTC
MEAN_ELEMENT_THEORY = SGP/SGP4

EPOCH          = 2026-01-30T08:53:02.103072
MEAN_MOTION    = 14.13517056
ECCENTRICITY   = .0014472
INCLINATION    = 44.9851
RA_OF_ASC_NODE = 337.2202
ARG_OF_PERICENTER = 36.2785
MEAN_ANOMALY   = 323.9032

EPHEMERIS_TYPE = 0
CLASSIFICATION_TYPE = U
NORAD_CAT_ID   = 67478
ELEMENT_SET_NO = 999
REV_AT_EPOCH   = 206
BSTAR          = .25056E-3
MEAN_MOTION_DOT = .342E-5
MEAN_MOTION_DDOT = 0

CCSDS_OMM_VERS = 2.0
CREATION_DATE  = 
ORIGINATOR     = 

OBJECT_NAME    = TIANQI-40
OBJECT_ID      = 2026-010D
CENTER_NAME    = EARTH
REF_FRAME      = TEME
TIME_SYSTEM    = UTC
MEAN_ELEMENT_THEORY = SGP/SGP4

EPOCH          = 2026-01-28T21:15:30.566880
MEAN_MOTION    = 14.13986611
ECCENTRICITY   = .0013061
INCLINATION    = 44.9851
RA_OF_ASC_NODE = 343.9821
ARG_OF_PERICENTER = 21.9564
MEAN_ANOMALY   = 338.1832

EPHEMERIS_TYPE = 0
CLASSIFICATION_TYPE = U
NORAD_CAT_ID   = 67479
ELEMENT_SET_NO = 999
REV_AT_EPOCH   = 185
BSTAR          = .23704672E-3
MEAN_MOTION_DOT = .32E-5
MEAN_MOTION_DDOT = 0

CCSDS_OMM_VERS = 2.0
CREATION_DATE  = 
ORIGINATOR     = 

OBJECT_NAME    = SZ-20 MODULE
OBJECT_ID      = 2025-082C
CENTER_NAME    = EARTH
REF_FRAME      = TEME
TIME_SYSTEM    = UTC
MEAN_ELEMENT_THEORY = SGP/SGP4

EPOCH          = 2026-01-31T04:32:12.376032
MEAN_MOTION    = 15.62079497
ECCENTRICITY   = .00062238
INCLINATION    = 41.4790
RA_OF_ASC_NODE = 75.9541
ARG_OF_PERICENTER = 56.1985
MEAN_ANOMALY   = 303.9446

EPHEMERIS_TYPE = 0
CLASSIFICATION_TYPE = U
NORAD_CAT_ID   = 67481
ELEMENT_SET_NO = 999
REV_AT_EPOCH   = 27175
BSTAR          = .23573682E-3
MEAN_MOTION_DOT = .20972E-3
MEAN_MOTION_DDOT = 0

CCSDS_OMM_VERS = 2.0
CREATION_DATE  = 
ORIGINATOR     = 

OBJECT_NAME    = ION SCV-021
OBJECT_ID      = 2025-276DT
CENTER_NAME    = EARTH
REF_FRAME      = TEME
TIME_SYSTEM    = UTC
MEAN_ELEMENT_THEORY = SGP/SGP4

EPOCH          = 2026-01-31T02:41:51.709920
MEAN_MOTION    = 14.97376944
ECCENTRICITY   = .00109401
INCLINATION    = 97.5412
RA_OF_ASC_NODE = 106.5336
ARG_OF_PERICENTER = 221.1070
MEAN_ANOMALY   = 138.9330

EPHEMERIS_TYPE = 0
CLASSIFICATION_TYPE = U
NORAD_CAT_ID   = 67483
ELEMENT_SET_NO = 999
REV_AT_EPOCH   = 209
BSTAR          = .82126245E-4
MEAN_MOTION_DOT = .899E-5
MEAN_MOTION_DDOT = 0

CCSDS_OMM_VERS = 2.0
CREATION_DATE  = 
ORIGINATOR     = 

OBJECT_NAME    = STARLINK-36551
OBJECT_ID      = 2026-012A
CENTER_NAME    = EARTH
REF_FRAME      = TEME
TIME_SYSTEM    = UTC
MEAN_ELEMENT_THEORY = SGP/SGP4

EPOCH          = 2026-01-31T12:00:01.999296
MEAN_MOTION    = 15.88968415
ECCENTRICITY   = .0001224
INCLINATION    = 42.9960
RA_OF_ASC_NODE = 169.5124
ARG_OF_PERICENTER = 282.4712
MEAN_ANOMALY   = 170.2508

EPHEMERIS_TYPE = 0
CLASSIFICATION_TYPE = U
NORAD_CAT_ID   = 67493
ELEMENT_SET_NO = 999
REV_AT_EPOCH   = 308
BSTAR          = -.63764E-2
MEAN_MOTION_DOT = -.1645521E-1
MEAN_MOTION_DDOT = 0

CCSDS_OMM_VERS = 2.0
CREATION_DATE  = 
ORIGINATOR     = 

OBJECT_NAME    = STARLINK-36396
OBJECT_ID      = 2026-012B
CENTER_NAME    = EARTH
REF_FRAME      = TEME
TIME_SYSTEM    = UTC
MEAN_ELEMENT_THEORY = SGP/SGP4

EPOCH          = 2026-01-31T12:00:01.999296
MEAN_MOTION    = 15.88027589
ECCENTRICITY   = .0001364
INCLINATION    = 42.9959
RA_OF_ASC_NODE = 169.5097
ARG_OF_PERICENTER = 282.6772
MEAN_ANOMALY   = 171.1676

EPHEMERIS_TYPE = 0
CLASSIFICATION_TYPE = U
NORAD_CAT_ID   = 67494
ELEMENT_SET_NO = 999
REV_AT_EPOCH   = 308
BSTAR          = -.96854E-2
MEAN_MOTION_DOT = -.231157E-1
MEAN_MOTION_DDOT = 0

