STARLINK-36269          
1 67472U 26008AD  26031.50002314 -.00019380  00000+0 -12326-3 0  9998
2 67472  43.0002  58.7979 0001216 275.2610  91.4406 15.75055778  3833
STARLINK-36408          
1 67473U 26008AE  26031.50002314  .00004462  00000+0  32161-4 0  9992
2 67473  43.0002  58.7886 0001737 272.9184  97.6498 15.75024474  3837
ALSAT-3A                
1 67474U 26009A   26031.50234369  .00006718  00000+0  28560-3 0  9994
2 67474  97.4701 106.2017 0011792 198.8416 161.2386 15.23307237  2464
CZ-2C R/B               
1 67475U 26009B   26031.45681068  .00004198  00000+0  28346-3 0  9993
2 67475  97.1792 104.7368 0099790 166.2527 194.1454 15.03057479  2481
TIANQI-37               
1 67476U 26010A   26031.29090847  .00000449  00000+0  30696-3 0  9993
2 67476  44.9836 333.0444 0013180  29.4843 330.6736 14.13519460  2194
TIANQI-38               
1 67477U 26010B   26031.28861744  .00000447  00000+0  30362-3 0  9993
2 67477  44.9798 333.0263 0011958  34.6054 325.5560 14.13896400  2194
TIANQI-39               
1 67478U 26010C   26030.37016323  .00000342  00000+0  25056-3 0  9996
2 67478  44.9851 337.2202 0014472  36.2785 323.9032 14.13517056  2066
TIANQI-40               
1 67479U 26010D   26028.88577045  .00000320  00000+0  23705-3 0  9998
2 67479  44.9851 343.9821 0013061  21.9564 338.1832 14.13986611  1856
SZ-20 MODULE            
1 67481U 25082C   26031.18903213  .00020972  00000+0  23574-3 0  9995
2 67481  41.4790  75.9541 0006223  56.1985 303.9446 15.62079497271752
ION SCV-021             
1 67483U 25276DT  26031.11240405  .00000899  00000+0  82126-4 0  9997
2 67483  97.5412 106.5336 0010940 221.1070 138.9330 14.97376944  2091
STARLINK-36551          
1 67493U 26012A   26031.50002314 -.01645521  00000+0 -63764-2 0  9990
2 67493  42.9960 169.5124 0001224 282.4712 170.2508 15.88968415  3083
STARLINK-36396          
1 67494U 26012B   26031.50002314 -.02311570  00000+0 -96854-2 0  9992
2 67494  42.9959 169.5097 0001364 282.6772 171.1676 15.88027589  3088
